GORIZONT 25             
1 21922U 92017A   12041.40473174 -.00000283  00000-0  10000-3 0  5908
2 21922  13.2462  32.0842 0029439 332.2351  27.6615  0.99846617 72614
GORIZONT 26             
1 22041U 92043A   12040.40076655 -.00000196  00000-0  10000-3 0  2104
2 22041  13.1512  33.5301 0029154 127.7350 232.6023  0.99241925 71473
GORIZONT 27             
1 22245U 92082A   12041.19849037  .00000042  00000-0  10000-3 0  7443
2 22245  13.0684  34.2713 0012744 263.3652  96.5540  1.00209455 74640
GORIZONT 28             
1 22880U 93069A   12041.21995337 -.00000088  00000-0  10000-3 0  5902
2 22880  12.6819  37.5019 0034672  23.5170 336.7114  0.99657865 66916
GORIZONT 29             
1 22907U 93072A   12040.62956873  .00000128  00000-0  10000-3 0  9562
2 22907  12.6484  37.4721 0011449 240.0307 119.9302  1.00134574 66716
GORIZONT 30             
1 23108U 94030A   12040.42638341 -.00000353  00000-0  10000-3 0  7666
2 23108  12.5224  38.5975 0001468   4.8064 355.2713  1.00373049 64935
GORIZONT 31             
1 23775U 96005A   12041.36803026 -.00000354  00000-0  10000-3 0  2259
2 23775  11.6001  44.0915 0019613  85.8221 274.4893  0.99896265 58705
GORIZONT 32             
1 23880U 96034A   12041.83712523  .00000136  00000-0  10000-3 0  9413
2 23880  11.4689  44.9563 0008647 247.7825 186.6770  1.00160236 57559
GORIZONT 33             
1 26372U 00029A   12042.24625970  .00000063  00000-0  10000-3 0  9134
2 26372   8.8651  53.7943 0003777 333.8714  26.2227  1.00242002 42888
